[{"OBJECT_NAME":"KUIPER-00254","OBJECT_ID":"2026-072N","EPOCH":"2026-04-21T15:56:54.131424","MEAN_MOTION":15.37024193,"ECCENTRICITY":0.00074582,"INCLINATION":51.8732,"RA_OF_ASC_NODE":90.3435,"ARG_OF_PERICENTER":165.8548,"MEAN_ANOMALY":194.2649,"EPHEMERIS_TYPE":0,"CLASSIFICATION_TYPE":"U","NORAD_CAT_ID":68585,"ELEMENT_SET_NO":999,"REV_AT_EPOCH":268,"BSTAR":0.00062136269,"MEAN_MOTION_DOT":0.00022553,"MEAN_MOTION_DDOT":0},{"OBJECT_NAME":"KUIPER-00263","OBJECT_ID":"2026-072P","EPOCH":"2026-04-21T15:30:48.536640","MEAN_MOTION":15.38614985,"ECCENTRICITY":0.00021747,"INCLINATION":51.877,"RA_OF_ASC_NODE":90.2225,"ARG_OF_PERICENTER":95.2467,"MEAN_ANOMALY":264.8769,"EPHEMERIS_TYPE":0,"CLASSIFICATION_TYPE":"U","NORAD_CAT_ID":68586,"ELEMENT_SET_NO":999,"REV_AT_EPOCH":268,"BSTAR":0.00063408968,"MEAN_MOTION_DOT":0.00024247,"MEAN_MOTION_DDOT":0},{"OBJECT_NAME":"KUIPER-00269","OBJECT_ID":"2026-072Q","EPOCH":"2026-04-21T15:44:37.580064","MEAN_MOTION":15.37703689,"ECCENTRICITY":0.00042055,"INCLINATION":51.8751,"RA_OF_ASC_NODE":90.289,"ARG_OF_PERICENTER":146.606,"MEAN_ANOMALY":213.5193,"EPHEMERIS_TYPE":0,"CLASSIFICATION_TYPE":"U","NORAD_CAT_ID":68587,"ELEMENT_SET_NO":999,"REV_AT_EPOCH":268,"BSTAR":0.00084890319,"MEAN_MOTION_DOT":0.00031672,"MEAN_MOTION_DDOT":0},{"OBJECT_NAME":"KUIPER-00272","OBJECT_ID":"2026-072R","EPOCH":"2026-04-21T15:48:48.651552","MEAN_MOTION":15.37466134,"ECCENTRICITY":0.00054336,"INCLINATION":51.8738,"RA_OF_ASC_NODE":90.3068,"ARG_OF_PERICENTER":159.1404,"MEAN_ANOMALY":200.9806,"EPHEMERIS_TYPE":0,"CLASSIFICATION_TYPE":"U","NORAD_CAT_ID":68588,"ELEMENT_SET_NO":999,"REV_AT_EPOCH":268,"BSTAR":0.00054215037,"MEAN_MOTION_DOT":0.000199,"MEAN_MOTION_DDOT":0},{"OBJECT_NAME":"KUIPER-00285","OBJECT_ID":"2026-072S","EPOCH":"2026-04-21T15:50:19.627296","MEAN_MOTION":15.3744359,"ECCENTRICITY":0.0006159,"INCLINATION":51.8747,"RA_OF_ASC_NODE":90.3141,"ARG_OF_PERICENTER":163.8874,"MEAN_ANOMALY":196.2309,"EPHEMERIS_TYPE":0,"CLASSIFICATION_TYPE":"U","NORAD_CAT_ID":68589,"ELEMENT_SET_NO":999,"REV_AT_EPOCH":268,"BSTAR":0.00057180887,"MEAN_MOTION_DOT":0.00021,"MEAN_MOTION_DDOT":0},{"OBJECT_NAME":"KUIPER-00286","OBJECT_ID":"2026-072T","EPOCH":"2026-04-21T15:43:22.678176","MEAN_MOTION":15.37862773,"ECCENTRICITY":0.00042808,"INCLINATION":51.8741,"RA_OF_ASC_NODE":90.2831,"ARG_OF_PERICENTER":139.9664,"MEAN_ANOMALY":220.1639,"EPHEMERIS_TYPE":0,"CLASSIFICATION_TYPE":"U","NORAD_CAT_ID":68590,"ELEMENT_SET_NO":999,"REV_AT_EPOCH":268,"BSTAR":0.00052996488,"MEAN_MOTION_DOT":0.00019696,"MEAN_MOTION_DDOT":0},{"OBJECT_NAME":"KUIPER-00289","OBJECT_ID":"2026-072U","EPOCH":"2026-04-21T16:11:52.567872","MEAN_MOTION":15.36111688,"ECCENTRICITY":0.00106389,"INCLINATION":51.8665,"RA_OF_ASC_NODE":90.4047,"ARG_OF_PERICENTER":180.9192,"MEAN_ANOMALY":179.1777,"EPHEMERIS_TYPE":0,"CLASSIFICATION_TYPE":"U","NORAD_CAT_ID":68591,"ELEMENT_SET_NO":999,"REV_AT_EPOCH":268,"BSTAR":0.0005659115,"MEAN_MOTION_DOT":0.00019914,"MEAN_MOTION_DDOT":0},{"OBJECT_NAME":"KUIPER-00290","OBJECT_ID":"2026-072V","EPOCH":"2026-04-21T16:10:56.582400","MEAN_MOTION":15.36134976,"ECCENTRICITY":0.00107982,"INCLINATION":51.8652,"RA_OF_ASC_NODE":90.3988,"ARG_OF_PERICENTER":178.0867,"MEAN_ANOMALY":182.0162,"EPHEMERIS_TYPE":0,"CLASSIFICATION_TYPE":"U","NORAD_CAT_ID":68592,"ELEMENT_SET_NO":999,"REV_AT_EPOCH":268,"BSTAR":0.00060700526,"MEAN_MOTION_DOT":0.0002141,"MEAN_MOTION_DDOT":0},{"OBJECT_NAME":"KUIPER-00293","OBJECT_ID":"2026-072W","EPOCH":"2026-04-21T13:09:45.127872","MEAN_MOTION":15.35630955,"ECCENTRICITY":0.0011306,"INCLINATION":51.8644,"RA_OF_ASC_NODE":91.054,"ARG_OF_PERICENTER":182.3968,"MEAN_ANOMALY":177.6966,"EPHEMERIS_TYPE":0,"CLASSIFICATION_TYPE":"U","NORAD_CAT_ID":68593,"ELEMENT_SET_NO":999,"REV_AT_EPOCH":266,"BSTAR":0.00055096,"MEAN_MOTION_DOT":0.00019079,"MEAN_MOTION_DDOT":0},{"OBJECT_NAME":"KUIPER-00294","OBJECT_ID":"2026-072X","EPOCH":"2026-04-21T23:55:38.710848","MEAN_MOTION":15.36391281,"ECCENTRICITY":0.0009537,"INCLINATION":51.869,"RA_OF_ASC_NODE":88.8169,"ARG_OF_PERICENTER":179.3,"MEAN_ANOMALY":180.8001,"EPHEMERIS_TYPE":0,"CLASSIFICATION_TYPE":"U","NORAD_CAT_ID":68594,"ELEMENT_SET_NO":999,"REV_AT_EPOCH":273,"BSTAR":0.00060397321,"MEAN_MOTION_DOT":0.00021471,"MEAN_MOTION_DDOT":0},{"OBJECT_NAME":"KUIPER-00296","OBJECT_ID":"2026-072Y","EPOCH":"2026-04-21T16:01:09.515136","MEAN_MOTION":15.36770348,"ECCENTRICITY":0.0008279,"INCLINATION":51.8714,"RA_OF_ASC_NODE":90.3608,"ARG_OF_PERICENTER":171.3993,"MEAN_ANOMALY":188.7137,"EPHEMERIS_TYPE":0,"CLASSIFICATION_TYPE":"U","NORAD_CAT_ID":68595,"ELEMENT_SET_NO":999,"REV_AT_EPOCH":268,"BSTAR":0.00057591957,"MEAN_MOTION_DOT":0.00020701,"MEAN_MOTION_DDOT":0},{"OBJECT_NAME":"KUIPER-00297","OBJECT_ID":"2026-072Z","EPOCH":"2026-04-21T16:09:22.901472","MEAN_MOTION":15.36232055,"ECCENTRICITY":0.00095476,"INCLINATION":51.8638,"RA_OF_ASC_NODE":90.3909,"ARG_OF_PERICENTER":178.7497,"MEAN_ANOMALY":181.3515,"EPHEMERIS_TYPE":0,"CLASSIFICATION_TYPE":"U","NORAD_CAT_ID":68596,"ELEMENT_SET_NO":999,"REV_AT_EPOCH":268,"BSTAR":0.00086956395,"MEAN_MOTION_DOT":0.00030964,"MEAN_MOTION_DDOT":0},{"OBJECT_NAME":"KUIPER-00300","OBJECT_ID":"2026-072AA","EPOCH":"2026-04-21T15:58:00.892704","MEAN_MOTION":15.36965497,"ECCENTRICITY":0.00078403,"INCLINATION":51.8688,"RA_OF_ASC_NODE":90.3451,"ARG_OF_PERICENTER":171.4448,"MEAN_ANOMALY":188.6674,"EPHEMERIS_TYPE":0,"CLASSIFICATION_TYPE":"U","NORAD_CAT_ID":68597,"ELEMENT_SET_NO":999,"REV_AT_EPOCH":268,"BSTAR":0.00060450553,"MEAN_MOTION_DOT":0.00021889,"MEAN_MOTION_DDOT":0},{"OBJECT_NAME":"KUIPER-00301","OBJECT_ID":"2026-072AB","EPOCH":"2026-04-21T16:03:12.602304","MEAN_MOTION":15.36636062,"ECCENTRICITY":0.00084972,"INCLINATION":51.8666,"RA_OF_ASC_NODE":90.3661,"ARG_OF_PERICENTER":174.4568,"MEAN_ANOMALY":185.6514,"EPHEMERIS_TYPE":0,"CLASSIFICATION_TYPE":"U","NORAD_CAT_ID":68598,"ELEMENT_SET_NO":999,"REV_AT_EPOCH":268,"BSTAR":0.00059517234,"MEAN_MOTION_DOT":0.00021316,"MEAN_MOTION_DDOT":0},{"OBJECT_NAME":"KUIPER-00304","OBJECT_ID":"2026-072AC","EPOCH":"2026-04-21T12:57:20.994912","MEAN_MOTION":15.36542302,"ECCENTRICITY":0.00091675,"INCLINATION":51.8674,"RA_OF_ASC_NODE":91.0024,"ARG_OF_PERICENTER":174.3898,"MEAN_ANOMALY":185.7192,"EPHEMERIS_TYPE":0,"CLASSIFICATION_TYPE":"U","NORAD_CAT_ID":68599,"ELEMENT_SET_NO":999,"REV_AT_EPOCH":266,"BSTAR":0.00065757133,"MEAN_MOTION_DOT":0.00023531,"MEAN_MOTION_DDOT":0},{"OBJECT_NAME":"KUIPER-00317","OBJECT_ID":"2026-072AD","EPOCH":"2026-04-21T12:52:29.610048","MEAN_MOTION":15.36799773,"ECCENTRICITY":0.0008508,"INCLINATION":51.8696,"RA_OF_ASC_NODE":90.9821,"ARG_OF_PERICENTER":167.2378,"MEAN_ANOMALY":192.8825,"EPHEMERIS_TYPE":0,"CLASSIFICATION_TYPE":"U","NORAD_CAT_ID":68600,"ELEMENT_SET_NO":999,"REV_AT_EPOCH":266,"BSTAR":0.00016621,"MEAN_MOTION_DOT":5.689e-5,"MEAN_MOTION_DDOT":0}]
