KUIPER-00254            
1 68585U 26072N   26111.66451541  .00022553  00000+0  62136-3 0  9999
2 68585  51.8732  90.3435 0007458 165.8548 194.2649 15.37024193  2681
KUIPER-00263            
1 68586U 26072P   26111.64639510  .00024247  00000+0  63409-3 0  9998
2 68586  51.8770  90.2225 0002174  95.2467 264.8769 15.38614985  2688
KUIPER-00269            
1 68587U 26072Q   26111.65599051  .00031672  00000+0  84890-3 0  9992
2 68587  51.8751  90.2890 0004205 146.6060 213.5193 15.37703689  2684
KUIPER-00272            
1 68588U 26072R   26111.65889643  .00019900  00000+0  54215-3 0  9990
2 68588  51.8738  90.3068 0005433 159.1404 200.9806 15.37466134  2685
KUIPER-00285            
1 68589U 26072S   26111.65994939  .00021000  00000+0  57181-3 0  9995
2 68589  51.8747  90.3141 0006159 163.8874 196.2309 15.37443590  2683
KUIPER-00286            
1 68590U 26072T   26111.65512359  .00019696  00000+0  52996-3 0  9996
2 68590  51.8741  90.2831 0004280 139.9664 220.1639 15.37862773  2689
KUIPER-00289            
1 68591U 26072U   26111.67491398  .00019914  00000+0  56591-3 0  9996
2 68591  51.8665  90.4047 0010638 180.9192 179.1777 15.36111688  2689
KUIPER-00290            
1 68592U 26072V   26111.67426600  .00021410  00000+0  60701-3 0  9993
2 68592  51.8652  90.3988 0010798 178.0867 182.0162 15.36134976  2689
KUIPER-00293            
1 68593U 26072W   26111.54843898  .00019079  00000+0  55096-3 0  9991
2 68593  51.8644  91.0540 0011306 182.3968 177.6966 15.35630955  2666
KUIPER-00294            
1 68594U 26072X   26111.99697582  .00021471  00000+0  60397-3 0  9997
2 68594  51.8690  88.8169 0009537 179.3000 180.8001 15.36391281  2736
KUIPER-00296            
1 68595U 26072Y   26111.66747124  .00020701  00000+0  57592-3 0  9998
2 68595  51.8714  90.3608 0008279 171.3993 188.7137 15.36770348  2681
KUIPER-00297            
1 68596U 26072Z   26111.67318173  .00030964  00000+0  86956-3 0  9996
2 68596  51.8638  90.3909 0009547 178.7497 181.3515 15.36232055  2687
KUIPER-00300            
1 68597U 26072AA  26111.66528811  .00021889  00000+0  60451-3 0  9996
2 68597  51.8688  90.3451 0007840 171.4448 188.6674 15.36965497  2684
KUIPER-00301            
1 68598U 26072AB  26111.66889586  .00021316  00000+0  59517-3 0  9992
2 68598  51.8666  90.3661 0008497 174.4568 185.6514 15.36636062  2682
KUIPER-00304            
1 68599U 26072AC  26111.53982633  .00023531  00000+0  65757-3 0  9990
2 68599  51.8674  91.0024 0009167 174.3898 185.7192 15.36542302  2667
KUIPER-00317            
1 68600U 26072AD  26111.53645382  .00005689  00000+0  16621-3 0  9990
2 68600  51.8696  90.9821 0008508 167.2378 192.8825 15.36799773  2667
